[{"OBJECT_NAME":"STARLINK-33993","OBJECT_ID":"2025-098Z","EPOCH":"2026-03-09T19:19:59.406816","MEAN_MOTION":14.98390673,"ECCENTRICITY":0.00023778,"INCLINATION":70.0003,"RA_OF_ASC_NODE":273.9954,"ARG_OF_PERICENTER":281.9857,"MEAN_ANOMALY":78.1036,"EPHEMERIS_TYPE":0,"CLASSIFICATION_TYPE":"U","NORAD_CAT_ID":63949,"ELEMENT_SET_NO":999,"REV_AT_EPOCH":4657,"BSTAR":-0.0074293417,"MEAN_MOTION_DOT":-0.00087772,"MEAN_MOTION_DDOT":0},{"OBJECT_NAME":"CZ-4B DEB","OBJECT_ID":"1999-057BZ","EPOCH":"2026-03-09T10:47:31.286688","MEAN_MOTION":14.9004764,"ECCENTRICITY":0.00449145,"INCLINATION":98.5631,"RA_OF_ASC_NODE":129.7133,"ARG_OF_PERICENTER":286.2462,"MEAN_ANOMALY":73.3815,"EPHEMERIS_TYPE":0,"CLASSIFICATION_TYPE":"U","NORAD_CAT_ID":26187,"ELEMENT_SET_NO":999,"REV_AT_EPOCH":39955,"BSTAR":0.00034061798,"MEAN_MOTION_DOT":3.283e-5,"MEAN_MOTION_DDOT":0}]
